{
  "type": "FeatureCollection",
  "features": [
    {
      "type": "Feature",
      "properties": {
        "norad_id": 48859,
        "name": "GPS BIII-5  (PRN 11)",
        "group": "gps-ops",
        "lat": 35.681504055057,
        "lon": 129.45449744748313,
        "alt_km": 20189.04061783375,
        "timestamp": "2025-12-27T16:33:30.481350+00:00",
        "meta_object_name": "GPS BIII-5  (PRN 11)",
        "meta_object_id": "2021-054A",
        "meta_epoch": "2025-12-08T04:14:32.423424",
        "meta_mean_motion": 2.00553627,
        "meta_eccentricity": 0.0024678,
        "meta_inclination": 55.2581,
        "meta_ra_of_asc_node": 340.1367,
        "meta_arg_of_pericenter": 233.3993,
        "meta_mean_anomaly": 212.8594,
        "meta_ephemeris_type": 0,
        "meta_classification_type": "U",
        "meta_norad_cat_id": 48859,
        "meta_element_set_no": 999,
        "meta_rev_at_epoch": 3292,
        "meta_bstar": 0,
        "meta_mean_motion_dot": -8.6e-07,
        "meta_mean_motion_ddot": 0,
        "tle_line1": "1 48859U 21054A   25342.17676416 -.00000086  00000+0  00000+0 0  9993",
        "tle_line2": "2 48859  55.2581 340.1367 0024678 233.3993 212.8594  2.00553627 32922"
      },
      "geometry": {
        "type": "Point",
        "coordinates": [
          129.45449744748313,
          35.681504055057
        ]
      }
    },
    {
      "type": "Feature",
      "properties": {
        "norad_id": 55268,
        "name": "GPS BIII-6  (PRN 28)",
        "group": "gps-ops",
        "lat": 1.9495212904041854,
        "lon": -26.111488893425037,
        "alt_km": 20192.84719336554,
        "timestamp": "2025-12-27T16:33:30.481362+00:00",
        "meta_object_name": "GPS BIII-6  (PRN 28)",
        "meta_object_id": "2023-009A",
        "meta_epoch": "2025-12-22T10:59:58.065216",
        "meta_mean_motion": 2.00554901,
        "meta_eccentricity": 0.00037047,
        "meta_inclination": 55.1065,
        "meta_ra_of_asc_node": 155.4638,
        "meta_arg_of_pericenter": 355.7912,
        "meta_mean_anomaly": 4.4255,
        "meta_ephemeris_type": 0,
        "meta_classification_type": "U",
        "meta_norad_cat_id": 55268,
        "meta_element_set_no": 999,
        "meta_rev_at_epoch": 2170,
        "meta_bstar": 0,
        "meta_mean_motion_dot": 7.4e-07,
        "meta_mean_motion_ddot": 0,
        "tle_line1": "1 55268U 23009A   25356.45831094  .00000074  00000+0  00000+0 0  9994",
        "tle_line2": "2 55268  55.1065 155.4638 0003704 355.7912   4.4255  2.00554901 21704"
      },
      "geometry": {
        "type": "Point",
        "coordinates": [
          -26.111488893425037,
          1.9495212904041854
        ]
      }
    },
    {
      "type": "Feature",
      "properties": {
        "norad_id": 62339,
        "name": "GPS BIII-7  (PRN 01)",
        "group": "gps-ops",
        "lat": -52.389161673833165,
        "lon": -133.10013033835335,
        "alt_km": 20188.0008238113,
        "timestamp": "2025-12-27T16:33:30.481373+00:00",
        "meta_object_name": "GPS BIII-7  (PRN 01)",
        "meta_object_id": "2024-242A",
        "meta_epoch": "2025-12-26T14:04:39.646272",
        "meta_mean_motion": 2.00567975,
        "meta_eccentricity": 0.0012885,
        "meta_inclination": 54.9194,
        "meta_ra_of_asc_node": 341.1802,
        "meta_arg_of_pericenter": 346.4396,
        "meta_mean_anomaly": 192.481,
        "meta_ephemeris_type": 0,
        "meta_classification_type": "U",
        "meta_norad_cat_id": 62339,
        "meta_element_set_no": 999,
        "meta_rev_at_epoch": 779,
        "meta_bstar": 0,
        "meta_mean_motion_dot": -6e-07,
        "meta_mean_motion_ddot": 0,
        "tle_line1": "1 62339U 24242A   25360.58656998 -.00000060  00000+0  00000+0 0  9994",
        "tle_line2": "2 62339  54.9194 341.1802 0012885 346.4396 192.4810  2.00567975  7794"
      },
      "geometry": {
        "type": "Point",
        "coordinates": [
          -133.10013033835335,
          -52.389161673833165
        ]
      }
    },
    {
      "type": "Feature",
      "properties": {
        "norad_id": 64202,
        "name": "GPS BIII-8  (PRN 21)",
        "group": "gps-ops",
        "lat": 54.747266079113885,
        "lon": 118.63540909259986,
        "alt_km": 20187.339461557054,
        "timestamp": "2025-12-27T16:33:30.481385+00:00",
        "meta_object_name": "GPS BIII-8  (PRN 21)",
        "meta_object_id": "2025-116A",
        "meta_epoch": "2025-12-26T01:49:27.319296",
        "meta_mean_motion": 2.00557298,
        "meta_eccentricity": 0.00059923,
        "meta_inclination": 55.1151,
        "meta_ra_of_asc_node": 38.103,
        "meta_arg_of_pericenter": 311.0999,
        "meta_mean_anomaly": 48.1681,
        "meta_ephemeris_type": 0,
        "meta_classification_type": "U",
        "meta_norad_cat_id": 64202,
        "meta_element_set_no": 999,
        "meta_rev_at_epoch": 439,
        "meta_bstar": 0,
        "meta_mean_motion_dot": -5.1e-07,
        "meta_mean_motion_ddot": 0,
        "tle_line1": "1 64202U 25116A   25360.07601064 -.00000051  00000+0  00000+0 0  9994",
        "tle_line2": "2 64202  55.1151  38.1030 0005992 311.0999  48.1681  2.00557298  4398"
      },
      "geometry": {
        "type": "Point",
        "coordinates": [
          118.63540909259986,
          54.747266079113885
        ]
      }
    }
  ]
}